{
    "links": {
        "self": "http://www.neowsapp.com/rest/v1/neo/3712668?api_key=iIulBulltgU6a56xZRHN4H3l9WmuAYTsLGpBGhQ2"
    },
    "id": "3712668",
    "neo_reference_id": "3712668",
    "name": "(2015 DL215)",
    "designation": "2015 DL215",
    "nasa_jpl_url": "http://ssd.jpl.nasa.gov/sbdb.cgi?sstr=3712668",
    "absolute_magnitude_h": 24.6,
    "estimated_diameter": {
        "kilometers": {
            "estimated_diameter_min": 0.0319561887,
            "estimated_diameter_max": 0.0714562102
        },
        "meters": {
            "estimated_diameter_min": 31.9561886721,
            "estimated_diameter_max": 71.4562101727
        },
        "miles": {
            "estimated_diameter_min": 0.0198566489,
            "estimated_diameter_max": 0.0444008168
        },
        "feet": {
            "estimated_diameter_min": 104.8431420431,
            "estimated_diameter_max": 234.436392583
        }
    },
    "is_potentially_hazardous_asteroid": false,
    "close_approach_data": [
        {
            "close_approach_date": "2006-03-14",
            "close_approach_date_full": "2006-Mar-14 19:53",
            "epoch_date_close_approach": 1142365980000,
            "relative_velocity": {
                "kilometers_per_second": "17.13686314",
                "kilometers_per_hour": "61692.707304009",
                "miles_per_hour": "38333.4491578716"
            },
            "miss_distance": {
                "astronomical": "0.4936924103",
                "lunar": "192.0463476067",
                "kilometers": "73855333.016046061",
                "miles": "45891575.9155192018"
            },
            "orbiting_body": "Earth"
        },
        {
            "close_approach_date": "2009-03-06",
            "close_approach_date_full": "2009-Mar-06 18:35",
            "epoch_date_close_approach": 1236364500000,
            "relative_velocity": {
                "kilometers_per_second": "12.9504582236",
                "kilometers_per_hour": "46621.649604924",
                "miles_per_hour": "28968.8800003485"
            },
            "miss_distance": {
                "astronomical": "0.3359277303",
                "lunar": "130.6758870867",
                "kilometers": "50254072.926814461",
                "miles": "31226432.9277871218"
            },
            "orbiting_body": "Earth"
        },
        {
            "close_approach_date": "2012-02-28",
            "close_approach_date_full": "2012-Feb-28 03:50",
            "epoch_date_close_approach": 1330401000000,
            "relative_velocity": {
                "kilometers_per_second": "9.2532762853",
                "kilometers_per_hour": "33311.7946269351",
                "miles_per_hour": "20698.6537224975"
            },
            "miss_distance": {
                "astronomical": "0.183330191",
                "lunar": "71.315444299",
                "kilometers": "27425806.08029317",
                "miles": "17041605.668538946"
            },
            "orbiting_body": "Earth"
        },
        {
            "close_approach_date": "2015-02-21",
            "close_approach_date_full": "2015-Feb-21 15:11",
            "epoch_date_close_approach": 1424531460000,
            "relative_velocity": {
                "kilometers_per_second": "6.8372276014",
                "kilometers_per_hour": "24614.0193649652",
                "miles_per_hour": "15294.1944215252"
            },
            "miss_distance": {
                "astronomical": "0.0610361521",
                "lunar": "23.7430631669",
                "kilometers": "9130878.347156027",
                "miles": "5673664.7135940926"
            },
            "orbiting_body": "Earth"
        },
        {
            "close_approach_date": "2021-02-11",
            "close_approach_date_full": "2021-Feb-11 13:56",
            "epoch_date_close_approach": 1613051760000,
            "relative_velocity": {
                "kilometers_per_second": "8.6029642873",
                "kilometers_per_hour": "30970.6714341172",
                "miles_per_hour": "19243.9708141602"
            },
            "miss_distance": {
                "astronomical": "0.2654563694",
                "lunar": "103.2625276966",
                "kilometers": "39711707.440173178",
                "miles": "24675710.7754107364"
            },
            "orbiting_body": "Earth"
        }
    ],
    "orbital_data": {
        "orbit_id": "8",
        "orbit_determination_date": "2017-04-06 08:35:18",
        "first_observation_date": "2015-02-26",
        "last_observation_date": "2015-03-10",
        "data_arc_in_days": 12,
        "observations_used": 31,
        "orbit_uncertainty": "8",
        "minimum_orbit_intersection": ".0557853",
        "jupiter_tisserand_invariant": "4.949",
        "epoch_osculation": "2457082.5",
        "eccentricity": ".2086844999779048",
        "semi_major_axis": "1.304192386029531",
        "inclination": "11.49990211679756",
        "ascending_node_longitude": "335.1847095571977",
        "orbital_period": "544.0150538122228",
        "perihelion_distance": "1.032027650075968",
        "perihelion_argument": "156.1571854095955",
        "aphelion_distance": "1.576357121983095",
        "perihelion_time": "2457056.045228794532",
        "mean_anomaly": "17.50634944241041",
        "mean_motion": ".6617463937390615",
        "equinox": "J2000",
        "orbit_class": {
            "orbit_class_type": "AMO",
            "orbit_class_description": "Near-Earth asteroid orbits similar to that of 1221 Amor",
            "orbit_class_range": "1.017 AU < q (perihelion) < 1.3 AU"
        }
    },
    "is_sentry_object": false
}